[{"OBJECT_NAME":"PAZ","OBJECT_ID":"2018-020A","EPOCH":"2026-03-09T23:24:20.190816","MEAN_MOTION":15.19156042,"ECCENTRICITY":0.00016941,"INCLINATION":97.4464,"RA_OF_ASC_NODE":77.7719,"ARG_OF_PERICENTER":90.6952,"MEAN_ANOMALY":269.4477,"EPHEMERIS_TYPE":0,"CLASSIFICATION_TYPE":"U","NORAD_CAT_ID":43215,"ELEMENT_SET_NO":999,"REV_AT_EPOCH":44594,"BSTAR":0.00012684525,"MEAN_MOTION_DOT":2.598e-5,"MEAN_MOTION_DDOT":0},{"OBJECT_NAME":"FLOCK 4H-26","OBJECT_ID":"2025-276BR","EPOCH":"2026-03-09T16:57:19.420128","MEAN_MOTION":15.18363903,"ECCENTRICITY":0.00047713,"INCLINATION":97.4257,"RA_OF_ASC_NODE":143.8885,"ARG_OF_PERICENTER":14.6559,"MEAN_ANOMALY":345.4813,"EPHEMERIS_TYPE":0,"CLASSIFICATION_TYPE":"U","NORAD_CAT_ID":66729,"ELEMENT_SET_NO":999,"REV_AT_EPOCH":1531,"BSTAR":0.00037006955,"MEAN_MOTION_DOT":7.54e-5,"MEAN_MOTION_DDOT":0}]
